QIANFAN-1               
1 60379U 24140A   25362.83870225  .00000133  00000+0  18754-3 0  9993
2 60379  88.9773 297.6151 0017454 162.2725 197.9039 13.50981212 69528
QIANFAN-2               
1 60380U 24140B   25362.79358028  .00000137  00000+0  19282-3 0  9993
2 60380  88.9760 297.4570 0013627 133.5086 226.7200 13.50984986 69575
QIANFAN-3               
1 60381U 24140C   25362.80174083  .00000146  00000+0  20767-3 0  9993
2 60381  88.9752 297.5876 0014349 145.9873 214.2201 13.50985566 69488
QIANFAN-4               
1 60382U 24140D   25362.77696826  .00000146  00000+0  20656-3 0  9991
2 60382  88.9777 297.4918 0013783 136.1104 224.1144 13.50981128 69602
QIANFAN-5               
1 60383U 24140E   25362.82645794  .00000145  00000+0  20535-3 0  9991
2 60383  88.9752 297.6103 0015265 157.5139 202.6684 13.50983246 69474
QIANFAN-6               
1 60384U 24140F   25362.84704367  .00000149  00000+0  21143-3 0  9996
2 60384  88.9779 297.3588 0013734 141.6329 218.5801 13.50983531 69678
QIANFAN-7               
1 60385U 24140G   25362.79515135  .00000968  00000+0  38661-3 0  9996
2 60385  88.9793 291.8369 0015323 356.8569   3.2526 14.27674099 72682
QIANFAN-8               
1 60386U 24140H   25362.85533499  .00000145  00000+0  20633-3 0  9994
2 60386  88.9780 297.5956 0017100 145.2600 214.9671 13.50981373 69527
